{"type": "FeatureCollection", "features": [ {"type": "Feature", "properties": {"norad_id": 36707, "name": "FENGYUN 1C DEB", "group": "fengyun-1c-debris", "lat": 28.94604001372884, "lon": -135.65119533559283, "alt_km": 808.7066429049601, "timestamp": "2025-12-19T10:50:01.489434+00:00", "meta": {"OBJECT_NAME": "FENGYUN 1C DEB", "OBJECT_ID": "1999-025EAD", "EPOCH": "2025-12-18T08:42:57.647808", "MEAN_MOTION": 14.17327397, "ECCENTRICITY": 0.00497364, "INCLINATION": 98.7521, "RA_OF_ASC_NODE": 38.3898, "ARG_OF_PERICENTER": 106.0397, "MEAN_ANOMALY": 254.6263, "EPHEMERIS_TYPE": 0, "CLASSIFICATION_TYPE": "U", "NORAD_CAT_ID": 36707, "ELEMENT_SET_NO": 999, "REV_AT_EPOCH": 64159, "BSTAR": 0.00068027928, "MEAN_MOTION_DOT": 1.349e-05, "MEAN_MOTION_DDOT": 0}, "tle": {"line1": "1 36707U 99025EAD 25352.36316722  .00001349  00000+0  68028-3 0  9998", "line2": "2 36707  98.7521  38.3898 0049736 106.0397 254.6263 14.17327397641598"}}, "geometry": {"type": "Point", "coordinates": [-135.65119533559283, 28.94604001372884]}}, {"type": "Feature", "properties": {"norad_id": 36710, "name": "FENGYUN 1C DEB", "group": "fengyun-1c-debris", "lat": 55.08603422815924, "lon": -117.26915129587735, "alt_km": 682.1472473109325, "timestamp": "2025-12-19T10:50:01.489444+00:00", "meta": {"OBJECT_NAME": "FENGYUN 1C DEB", "OBJECT_ID": "1999-025EAG", "EPOCH": "2025-12-15T10:11:57.749280", "MEAN_MOTION": 14.49882943, "ECCENTRICITY": 0.00679739, "INCLINATION": 98.3812, "RA_OF_ASC_NODE": 46.5328, "ARG_OF_PERICENTER": 173.535, "MEAN_ANOMALY": 186.6737, "EPHEMERIS_TYPE": 0, "CLASSIFICATION_TYPE": "U", "NORAD_CAT_ID": 36710, "ELEMENT_SET_NO": 999, "REV_AT_EPOCH": 64992, "BSTAR": 0.00098752348, "MEAN_MOTION_DOT": 3.884e-05, "MEAN_MOTION_DDOT": 0}, "tle": {"line1": "1 36710U 99025EAG 25349.42497395  .00003884  00000+0  98752-3 0  9994", "line2": "2 36710  98.3812  46.5328 0067973 173.5350 186.6737 14.49882943649924"}}, "geometry": {"type": "Point", "coordinates": [-117.26915129587735, 55.08603422815924]}}, {"type": "Feature", "properties": {"norad_id": 36711, "name": "FENGYUN 1C DEB", "group": "fengyun-1c-debris", "lat": -2.8181945631579923, "lon": -166.02319923007343, "alt_km": 682.5653439830876, "timestamp": "2025-12-19T10:50:01.489454+00:00", "meta": {"OBJECT_NAME": "FENGYUN 1C DEB", "OBJECT_ID": "1999-025EAH", "EPOCH": "2025-12-15T19:25:24.600864", "MEAN_MOTION": 14.42474443, "ECCENTRICITY": 0.01001739, "INCLINATION": 100.8044, "RA_OF_ASC_NODE": 9.912, "ARG_OF_PERICENTER": 199.8566, "MEAN_ANOMALY": 159.8704, "EPHEMERIS_TYPE": 0, "CLASSIFICATION_TYPE": "U", "NORAD_CAT_ID": 36711, "ELEMENT_SET_NO": 999, "REV_AT_EPOCH": 64355, "BSTAR": 0.0014307525, "MEAN_MOTION_DOT": 4.969e-05, "MEAN_MOTION_DDOT": 0}, "tle": {"line1": "1 36711U 99025EAH 25349.80931251  .00004969  00000+0  14308-2 0  9990", "line2": "2 36711 100.8044   9.9120 0100173 199.8566 159.8704 14.42474443643558"}}, "geometry": {"type": "Point", "coordinates": [-166.02319923007343, -2.8181945631579923]}}, {"type": "Feature", "properties": {"norad_id": 36716, "name": "FENGYUN 1C DEB", "group": "fengyun-1c-debris", "lat": -0.6170139150303835, "lon": -87.4691948779028, "alt_km": 1029.3638983714918, "timestamp": "2025-12-19T10:50:01.489464+00:00", "meta": {"OBJECT_NAME": "FENGYUN 1C DEB", "OBJECT_ID": "1999-025EAN", "EPOCH": "2025-12-18T00:14:45.593952", "MEAN_MOTION": 13.8841712, "ECCENTRICITY": 0.01481792, "INCLINATION": 99.2289, "RA_OF_ASC_NODE": 271.0046, "ARG_OF_PERICENTER": 214.5801, "MEAN_ANOMALY": 144.565, "EPHEMERIS_TYPE": 0, "CLASSIFICATION_TYPE": "U", "NORAD_CAT_ID": 36716, "ELEMENT_SET_NO": 999, "REV_AT_EPOCH": 63004, "BSTAR": 0.00018188182, "MEAN_MOTION_DOT": 1.93e-06, "MEAN_MOTION_DDOT": 0}, "tle": {"line1": "1 36716U 99025EAN 25352.01024993  .00000193  00000+0  18188-3 0  9994", "line2": "2 36716  99.2289 271.0046 0148179 214.5801 144.5650 13.88417120630048"}}, "geometry": {"type": "Point", "coordinates": [-87.4691948779028, -0.6170139150303835]}}, {"type": "Feature", "properties": {"norad_id": 36724, "name": "FENGYUN 1C DEB", "group": "fengyun-1c-debris", "lat": 35.3416432971653, "lon": 18.91964254644335, "alt_km": 864.0185565246184, "timestamp": "2025-12-19T10:50:01.489475+00:00", "meta": {"OBJECT_NAME": "FENGYUN 1C DEB", "OBJECT_ID": "1999-025EAW", "EPOCH": "2025-12-18T01:06:38.664576", "MEAN_MOTION": 14.25328701, "ECCENTRICITY": 0.01037205, "INCLINATION": 99.4675, "RA_OF_ASC_NODE": 24.1999, "ARG_OF_PERICENTER": 182.8224, "MEAN_ANOMALY": 207.9026, "EPHEMERIS_TYPE": 0, "CLASSIFICATION_TYPE": "U", "NORAD_CAT_ID": 36724, "ELEMENT_SET_NO": 999, "REV_AT_EPOCH": 57548, "BSTAR": 0.0014303066, "MEAN_MOTION_DOT": 3.515e-05, "MEAN_MOTION_DDOT": 0}, "tle": {"line1": "1 36724U 99025EAW 25352.04628084  .00003515  00000+0  14303-2 0  9992", "line2": "2 36724  99.4675  24.1999 0103720 182.8224 207.9026 14.25328701575486"}}, "geometry": {"type": "Point", "coordinates": [18.91964254644335, 35.3416432971653]}}, {"type": "Feature", "properties": {"norad_id": 36729, "name": "FENGYUN 1C DEB", "group": "fengyun-1c-debris", "lat": 81.16524644256056, "lon": -105.37532784878462, "alt_km": 878.7053707306059, "timestamp": "2025-12-19T10:50:01.489485+00:00", "meta": {"OBJECT_NAME": "FENGYUN 1C DEB", "OBJECT_ID": "1999-025EBB", "EPOCH": "2025-12-16T04:05:17.827872", "MEAN_MOTION": 14.10320494, "ECCENTRICITY": 0.00453471, "INCLINATION": 98.708, "RA_OF_ASC_NODE": 331.8661, "ARG_OF_PERICENTER": 246.1932, "MEAN_ANOMALY": 113.4481, "EPHEMERIS_TYPE": 0, "CLASSIFICATION_TYPE": "U", "NORAD_CAT_ID": 36729, "ELEMENT_SET_NO": 999, "REV_AT_EPOCH": 87300, "BSTAR": 0.00030652739, "MEAN_MOTION_DOT": 5.06e-06, "MEAN_MOTION_DDOT": 0}, "tle": {"line1": "1 36729U 99025EBB 25350.17034523  .00000506  00000+0  30653-3 0  9992", "line2": "2 36729  98.7080 331.8661 0045347 246.1932 113.4481 14.10320494873007"}}, "geometry": {"type": "Point", "coordinates": [-105.37532784878462, 81.16524644256056]}}, {"type": "Feature", "properties": {"norad_id": 36734, "name": "FENGYUN 1C DEB", "group": "fengyun-1c-debris", "lat": -44.23160727678687, "lon": -148.36387774754542, "alt_km": 788.2162408065205, "timestamp": "2025-12-19T10:50:01.489495+00:00", "meta": {"OBJECT_NAME": "FENGYUN 1C DEB", "OBJECT_ID": "1999-025EBG", "EPOCH": "2025-12-18T01:47:05.053056", "MEAN_MOTION": 14.25897297, "ECCENTRICITY": 0.00364903, "INCLINATION": 99.0559, "RA_OF_ASC_NODE": 39.1461, "ARG_OF_PERICENTER": 204.3184, "MEAN_ANOMALY": 155.6274, "EPHEMERIS_TYPE": 0, "CLASSIFICATION_TYPE": "U", "NORAD_CAT_ID": 36734, "ELEMENT_SET_NO": 999, "REV_AT_EPOCH": 82810, "BSTAR": 0.0013415374, "MEAN_MOTION_DOT": 3.171e-05, "MEAN_MOTION_DDOT": 0}, "tle": {"line1": "1 36734U 99025EBG 25352.07436404  .00003171  00000+0  13415-2 0  9990", "line2": "2 36734  99.0559  39.1461 0036490 204.3184 155.6274 14.25897297828103"}}, "geometry": {"type": "Point", "coordinates": [-148.36387774754542, -44.23160727678687]}}, {"type": "Feature", "properties": {"norad_id": 36736, "name": "FENGYUN 1C DEB", "group": "fengyun-1c-debris", "lat": -45.500897678357234, "lon": 76.01710862535631, "alt_km": 856.105786326746, "timestamp": "2025-12-19T10:50:01.489505+00:00", "meta": {"OBJECT_NAME": "FENGYUN 1C DEB", "OBJECT_ID": "1999-025EBJ", "EPOCH": "2025-12-17T11:53:03.561504", "MEAN_MOTION": 14.25503808, "ECCENTRICITY": 0.00608931, "INCLINATION": 98.8065, "RA_OF_ASC_NODE": 64.9763, "ARG_OF_PERICENTER": 126.7147, "MEAN_ANOMALY": 233.9647, "EPHEMERIS_TYPE": 0, "CLASSIFICATION_TYPE": "U", "NORAD_CAT_ID": 36736, "ELEMENT_SET_NO": 999, "REV_AT_EPOCH": 88683, "BSTAR": 0.0013401294, "MEAN_MOTION_DOT": 3.186e-05, "MEAN_MOTION_DDOT": 0}, "tle": {"line1": "1 36736U 99025EBJ 25351.49518011  .00003186  00000+0  13401-2 0  9993", "line2": "2 36736  98.8065  64.9763 0060893 126.7147 233.9647 14.25503808886835"}}, "geometry": {"type": "Point", "coordinates": [76.01710862535631, -45.500897678357234]}}, {"type": "Feature", "properties": {"norad_id": 36743, "name": "FENGYUN 1C DEB", "group": "fengyun-1c-debris", "lat": 70.19716461232896, "lon": 16.64341972584557, "alt_km": 781.237283360816, "timestamp": "2025-12-19T10:50:01.489515+00:00", "meta": {"OBJECT_NAME": "FENGYUN 1C DEB", "OBJECT_ID": "1999-025EBR", "EPOCH": "2025-12-15T20:48:16.336800", "MEAN_MOTION": 14.29116099, "ECCENTRICITY": 0.0047177, "INCLINATION": 98.6557, "RA_OF_ASC_NODE": 38.1117, "ARG_OF_PERICENTER": 3.5743, "MEAN_ANOMALY": 356.5766, "EPHEMERIS_TYPE": 0, "CLASSIFICATION_TYPE": "U", "NORAD_CAT_ID": 36743, "ELEMENT_SET_NO": 999, "REV_AT_EPOCH": 60782, "BSTAR": 0.00095050245, "MEAN_MOTION_DOT": 2.395e-05, "MEAN_MOTION_DDOT": 0}, "tle": {"line1": "1 36743U 99025EBR 25349.86685575  .00002395  00000+0  95050-3 0  9991", "line2": "2 36743  98.6557  38.1117 0047177   3.5743 356.5766 14.29116099607827"}}, "geometry": {"type": "Point", "coordinates": [16.64341972584557, 70.19716461232896]}}, {"type": "Feature", "properties": {"norad_id": 36986, "name": "FENGYUN 1C DEB", "group": "fengyun-1c-debris", "lat": 39.305996262885785, "lon": 52.037636720297805, "alt_km": 903.6369662222214, "timestamp": "2025-12-19T10:50:01.489525+00:00", "meta": {"OBJECT_NAME": "FENGYUN 1C DEB", "OBJECT_ID": "1999-025EBS", "EPOCH": "2025-12-15T03:05:39.285888", "MEAN_MOTION": 14.14607907, "ECCENTRICITY": 0.00875693, "INCLINATION": 99.1452, "RA_OF_ASC_NODE": 55.1898, "ARG_OF_PERICENTER": 235.0252, "MEAN_ANOMALY": 124.2675, "EPHEMERIS_TYPE": 0, "CLASSIFICATION_TYPE": "U", "NORAD_CAT_ID": 36986, "ELEMENT_SET_NO": 999, "REV_AT_EPOCH": 81778, "BSTAR": 0.0016913625, "MEAN_MOTION_DOT": 3.326e-05, "MEAN_MOTION_DDOT": 0}, "tle": {"line1": "1 36986U 99025EBS 25349.12892692  .00003326  00000+0  16914-2 0  9995", "line2": "2 36986  99.1452  55.1898 0087569 235.0252 124.2675 14.14607907817781"}}, "geometry": {"type": "Point", "coordinates": [52.037636720297805, 39.305996262885785]}}]}